NORAD_CAT_ID,OBJECT_NAME,OBJECT_TYPE,EPOCH,MEAN_MOTION,ECCENTRICITY,INCLINATION,RA_OF_ASC_NODE,ARG_OF_PERICENTER,MEAN_ANOMALY,BSTAR,MEAN_MOTION_DOT,MEAN_MOTION_DDOT,TLE_LINE0,TLE_LINE1,TLE_LINE2,SEMIMAJOR_AXIS,PERIOD,APOGEE,PERIGEE,DECAYED
50836.0,STARLINK-3330,PAYLOAD,2023-06-18 20:18:01,15.08849399,0.0001091,53.2177,325.1472,65.9884,294.1222,0.00062865,9.734e-05,0.0,0 STARLINK-3330,1 50836U 22001AK  23169.84585585  .00009734  00000-0  62865-3 0  9999,2 50836  53.2177 325.1472 0001091  65.9884 294.1222 15.08849399 79974,6917.852,95.437,540.471,538.962,0.0
50836.0,STARLINK-3330,PAYLOAD,2023-06-19 10:36:30,15.08851599,0.0001127,53.2179,322.4709,62.7124,297.3983,0.00045361,6.941e-05,0.0,0 STARLINK-3330,1 50836U 22001AK  23170.44201578  .00006941  00000-0  45361-3 0  9993,2 50836  53.2179 322.4709 0001127  62.7124 297.3983 15.08851599 80067,6917.845,95.437,540.49,538.93,0.0
50836.0,STARLINK-3330,PAYLOAD,2023-06-19 18:33:25,15.08858918,0.0001125,53.2182,320.9836,62.4896,297.6211,0.00050187,7.712e-05,0.0,0 STARLINK-3330,1 50836U 22001AK  23170.77321160  .00007712  00000-0  50187-3 0  9998,2 50836  53.2182 320.9836 0001125  62.4896 297.6211 15.08858918 80111,6917.823,95.436,540.466,538.909,0.0
50836.0,STARLINK-3330,PAYLOAD,2023-06-20 02:30:21,15.08853266,0.0001032,53.218,319.4956,54.6292,305.4797,0.00020957,3.05e-05,0.0,0 STARLINK-3330,1 50836U 22001AK  23171.10441062  .00003050  00000-0  20957-3 0  9993,2 50836  53.2180 319.4956 0001032  54.6292 305.4797 15.08853266 81529,6917.84,95.437,540.419,538.991,0.0
50836.0,STARLINK-3330,PAYLOAD,2023-06-20 19:59:35,15.08844104,0.0001098,53.2183,316.2264,60.0721,300.038,0.00016073,2.271e-05,0.0,0 STARLINK-3330,1 50836U 22001AK  23171.83305160  .00002271  00000-0  16073-3 0  9999,2 50836  53.2183 316.2264 0001098  60.0721 300.0380 15.08844104 80270,6917.868,95.437,540.492,538.973,0.0
50836.0,STARLINK-3330,PAYLOAD,2023-06-21 10:18:04,15.08838004,0.000127,53.2178,313.5487,82.1419,277.9717,-1.5343e-05,-5.32e-06,0.0,0 STARLINK-3330,1 50836U 22001AK  23172.42921479 -.00000532  00000-0 -15343-4 0  9992,2 50836  53.2178 313.5487 0001270  82.1419 277.9717 15.08838004 81721,6917.886,95.438,540.63,538.873,0.0
50836.0,STARLINK-3330,PAYLOAD,2023-06-21 16:39:36,15.08840324,9.56e-05,53.2176,312.3618,72.9497,287.16,4.3467e-05,4.04e-06,0.0,0 STARLINK-3330,1 50836U 22001AK  23172.69417364  .00000404  00000-0  43467-4 0  9998,2 50836  53.2176 312.3618 0000956  72.9497 287.1600 15.08840324 80401,6917.879,95.438,540.406,539.083,0.0
50836.0,STARLINK-3330,PAYLOAD,2023-06-22 18:05:46,15.08847775,9.39e-05,53.2173,307.6049,86.4827,273.6273,0.00022138,3.238e-05,0.0,0 STARLINK-3330,1 50836U 22001AK  23173.75401352  .00003238  00000-0  22138-3 0  9995,2 50836  53.2173 307.6049 0000939  86.4827 273.6273 15.08847775 81922,6917.857,95.437,540.371,539.072,0.0
50836.0,STARLINK-3330,PAYLOAD,2023-06-23 02:02:42,15.08839753,0.0001191,53.2174,306.1136,86.5336,273.5793,0.00013734,1.899e-05,0.0,0 STARLINK-3330,1 50836U 22001AK  23174.08521734  .00001899  00000-0  13734-3 0  9992,2 50836  53.2174 306.1136 0001191  86.5336 273.5793 15.08839753 81979,6917.881,95.438,540.57,538.922,0.0
50836.0,STARLINK-3330,PAYLOAD,2023-06-24 03:28:52,15.08842316,0.0001048,53.217,301.3604,79.3384,280.7726,0.00012818,1.753e-05,0.0,0 STARLINK-3330,1 50836U 22001AK  23175.14505610  .00001753  00000-0  12818-3 0  9996,2 50836  53.2170 301.3604 0001048  79.3384 280.7726 15.08842316 82130,6917.873,95.437,540.463,539.013,0.0
50836.0,STARLINK-3330,PAYLOAD,2023-06-25 11:16:35,15.08842062,0.0001053,53.2175,295.4134,79.0083,281.1028,9.6789e-05,1.253e-05,0.0,0 STARLINK-3330,1 50836U 22001AK  23176.46985804  .00001253  00000-0  96789-4 0  9994,2 50836  53.2175 295.4134 0001053  79.0083 281.1028 15.08842062 82335,6917.874,95.437,540.468,539.011,0.0
50836.0,STARLINK-3330,PAYLOAD,2023-06-25 17:38:07,15.08853404,0.0001076,53.2174,294.2228,82.115,277.9964,0.00019405,2.803e-05,0.0,0 STARLINK-3330,1 50836U 22001AK  23176.73481168  .00002803  00000-0  19405-3 0  9999,2 50836  53.2174 294.2228 0001076  82.1150 277.9964 15.08853404 82378,6917.839,95.437,540.449,538.96,0.0
50836.0,STARLINK-3330,PAYLOAD,2023-06-26 07:56:36,15.08831411,8.24e-05,53.2173,291.5478,82.6108,277.4978,6.2677e-06,-1.88e-06,0.0,0 STARLINK-3330,1 50836U 22001AK  23177.33098356 -.00000188  00000-0  62677-5 0  9995,2 50836  53.2173 291.5478 0000824  82.6108 277.4978 15.08831411 82466,6917.907,95.438,540.342,539.202,0.0
50836.0,STARLINK-3330,PAYLOAD,2023-06-27 12:33:33,15.08854892,0.0001363,53.2171,286.1953,77.7437,282.3708,0.00079258,0.00012354,0.0,0 STARLINK-3330,1 50836U 22001AK  23178.52330930  .00012354  00000-0  79258-3 0  9992,2 50836  53.2171 286.1953 0001363  77.7437 282.3708 15.08854892 82645,6917.835,95.437,540.643,538.757,0.0
50836.0,STARLINK-3330,PAYLOAD,2023-06-28 10:48:57,15.08857147,0.0001382,53.2174,282.0308,87.2988,272.8163,0.00042607,6.503e-05,0.0,0 STARLINK-3330,1 50836U 22001AK  23179.45066545  .00006503  00000-0  42607-3 0  9990,2 50836  53.2174 282.0308 0001382  87.2988 272.8163 15.08857147 82785,6917.828,95.436,540.649,538.737,0.0
50836.0,STARLINK-3330,PAYLOAD,2023-06-28 23:32:02,15.08846319,0.0001477,53.2175,279.6533,85.7667,274.3494,-2.7896e-05,-7.32e-06,0.0,0 STARLINK-3330,1 50836U 22001AK  23179.98058435 -.00000732  00000-0 -27896-4 0  9991,2 50836  53.2175 279.6533 0001477  85.7667 274.3494 15.08846319 82862,6917.861,95.437,540.748,538.704,0.0
50836.0,STARLINK-3330,PAYLOAD,2023-07-01 05:35:09,15.08834795,0.0001452,53.2175,269.5435,88.174,271.9419,7.134e-06,-1.74e-06,0.0,0 STARLINK-3330,1 50836U 22001AK  23182.23274751 -.00000174  00000-0  71340-5 0  9997,2 50836  53.2175 269.5435 0001452  88.1740 271.9419 15.08834795 83207,6917.896,95.438,540.766,538.757,0.0
50836.0,STARLINK-3330,PAYLOAD,2023-07-02 11:47:29,15.08832195,0.0001267,53.2172,263.8932,92.0409,268.0728,0.0001752,2.501e-05,0.0,0 STARLINK-3330,1 50836U 22001AK  23183.49131098  .00002501  00000-0  17520-3 0  9995,2 50836  53.2172 263.8932 0001267  92.0409 268.0728 15.08832195 83395,6917.904,95.438,540.646,538.893,0.0
50836.0,STARLINK-3330,PAYLOAD,2023-07-02 14:58:15,15.0884363,0.0001322,53.2171,263.2981,90.2064,269.9079,4.1156e-05,3.67e-06,0.0,0 STARLINK-3330,1 50836U 22001AK  23183.62378581  .00000367  00000-0  41156-4 0  9991,2 50836  53.2171 263.2981 0001322  90.2064 269.9079 15.08843630 83419,6917.869,95.437,540.649,538.82,0.0
50836.0,STARLINK-3330,PAYLOAD,2023-07-04 09:53:40,15.08836894,0.0001249,53.2173,255.269,89.7979,270.3156,3.8611e-05,3.27e-06,0.0,0 STARLINK-3330,1 50836U 22001AK  23185.41227059  .00000327  00000-0  38611-4 0  9991,2 50836  53.2173 255.2690 0001249  89.7979 270.3156 15.08836894 83680,6917.89,95.438,540.619,538.891,0.0
50836.0,STARLINK-3330,PAYLOAD,2023-07-05 11:19:49,15.08842957,0.0001193,53.2173,250.5118,92.4089,267.704,3.1994e-05,2.21e-06,0.0,0 STARLINK-3330,1 50836U 22001AK  23186.47210648  .00000221  00000-0  31994-4 0  9994,2 50836  53.2173 250.5118 0001193  92.4089 267.7040 15.08842957 83841,6917.871,95.437,540.562,538.911,0.0
50836.0,STARLINK-3330,PAYLOAD,2023-07-06 03:13:41,15.08835824,0.0001123,53.2171,247.5387,91.535,268.577,6.1925e-05,6.98e-06,0.0,0 STARLINK-3330,1 50836U 22001AK  23187.13451072  .00000698  00000-0  61925-4 0  9991,2 50836  53.2171 247.5387 0001123  91.5350 268.5770 15.08835824 83942,6917.893,95.438,540.535,538.981,0.0
50836.0,STARLINK-3330,PAYLOAD,2023-07-07 09:26:01,15.08844011,9.93e-05,53.2168,241.8886,87.9936,272.117,8.6524e-05,1.09e-05,0.0,0 STARLINK-3330,1 50836U 22001AK  23188.39306744  .00001090  00000-0  86524-4 0  9994,2 50836  53.2168 241.8886 0000993  87.9936 272.1170 15.08844011 84137,6917.868,95.437,540.42,539.046,0.0
50836.0,STARLINK-3330,PAYLOAD,2023-07-07 23:44:29,15.08837981,9.99e-05,53.2168,239.212,93.3889,266.7217,4.8839e-05,4.9e-06,0.0,0 STARLINK-3330,1 50836U 22001AK  23188.98923155  .00000490  00000-0  48839-4 0  9990,2 50836  53.2168 239.2120 0000999  93.3889 266.7217 15.08837981 84222,6917.887,95.438,540.443,539.06,0.0
50836.0,STARLINK-3330,PAYLOAD,2023-07-09 02:46:03,15.0883826,0.0001012,53.2165,234.1568,92.4829,267.6279,2.3477e-05,8.6e-07,0.0,0 STARLINK-3330,1 50836U 22001AK  23190.11531284  .00000086  00000-0  23477-4 0  9998,2 50836  53.2165 234.1568 0001012  92.4829 267.6279 15.08838260 84397,6917.886,95.438,540.451,539.051,0.0
50836.0,STARLINK-3330,PAYLOAD,2023-07-10 12:09:08,15.08838541,0.0001025,53.2166,227.9125,88.2683,271.8426,4.0475e-05,3.56e-06,0.0,0 STARLINK-3330,1 50836U 22001AK  23191.50635354  .00000356  00000-0  40475-4 0  9992,2 50836  53.2166 227.9125 0001025  88.2683 271.8426 15.08838541 84609,6917.885,95.438,540.459,539.041,0.0
50836.0,STARLINK-3330,PAYLOAD,2023-07-11 23:07:38,15.08837706,9.91e-05,53.2164,221.3702,82.879,277.2315,5.4896e-05,5.86e-06,0.0,0 STARLINK-3330,1 50836U 22001AK  23192.96363458  .00000586  00000-0  54896-4 0  9993,2 50836  53.2164 221.3702 0000991  82.8790 277.2315 15.08837706 84829,6917.887,95.438,540.438,539.067,0.0
50836.0,STARLINK-3330,PAYLOAD,2023-07-13 08:30:43,15.08840722,0.0001029,53.2165,215.1259,81.7789,278.332,1.6381e-05,-2.7e-07,0.0,0 STARLINK-3330,1 50836U 22001AK  23194.35467542 -.00000027  00000-0  16381-4 0  9995,2 50836  53.2165 215.1259 0001029  81.7789 278.3320 15.08840722 85031,6917.878,95.438,540.455,539.031,0.0
50836.0,STARLINK-3330,PAYLOAD,2023-07-14 11:32:17,15.08838539,0.0001048,53.2165,210.0707,79.9409,280.1701,5.5454e-05,5.95e-06,0.0,0 STARLINK-3330,1 50836U 22001AK  23195.48075766  .00000595  00000-0  55454-4 0  9996,2 50836  53.2165 210.0707 0001048  79.9409 280.1701 15.08838539 85208,6917.885,95.438,540.475,539.025,0.0
50836.0,STARLINK-3330,PAYLOAD,2023-07-15 17:44:37,15.08838165,0.0001059,53.2163,204.4208,84.4462,275.6651,4.3206e-05,4e-06,0.0,0 STARLINK-3330,1 50836U 22001AK  23196.73931966  .00000400  00000-0  43206-4 0  9995,2 50836  53.2163 204.4208 0001059  84.4462 275.6651 15.08838165 85399,6917.886,95.438,540.484,539.018,0.0
